OBJECT_NAME,OBJECT_ID,EPOCH,MEAN_MOTION,ECCENTRICITY,INCLINATION,RA_OF_ASC_NODE,ARG_OF_PERICENTER,MEAN_ANOMALY,EPHEMERIS_TYPE,CLASSIFICATION_TYPE,NORAD_CAT_ID,ELEMENT_SET_NO,REV_AT_EPOCH,BSTAR,MEAN_MOTION_DOT,MEAN_MOTION_DDOT
STARLINK-37531,2026-110N,2026-06-07T18:00:04.999104,15.68897368,.0001827,97.2848,355.0989,87.0706,133.1984,0,U,69136,999,414,-.26244E-1,-.2611635E-1,0
STARLINK-37662,2026-110P,2026-06-07T18:00:04.999104,15.63200871,.0001235,97.2851,355.0734,73.4035,87.3757,0,U,69137,999,414,-.34681E-1,-.2721765E-1,0
STARLINK-37658,2026-110Q,2026-06-07T18:00:04.999104,15.53679270,.0001594,97.2848,355.0237,91.1108,304.2737,0,U,69138,999,414,-.38576E-1,-.2180149E-1,0
STARLINK-37659,2026-110R,2026-06-07T18:00:04.999104,15.52324615,.0001625,97.2855,355.0095,60.6595,299.0728,0,U,69139,999,414,-.55735E-1,-.2940688E-1,0
STARLINK-37653,2026-110S,2026-06-07T18:00:04.999104,15.49995626,.0001652,97.2856,355.0005,109.0808,239.1536,0,U,69140,999,414,-.23026E-1,-.1159405E-1,0
STARLINK-37654,2026-110T,2026-06-07T18:00:04.999104,15.61830444,.0001935,97.2848,355.0809,80.6986,97.8843,0,U,69141,999,414,-.34127E-1,-.2563878E-1,0
STARLINK-37655,2026-110U,2026-06-07T18:00:04.999104,15.65922938,.0001558,97.2849,355.0974,74.3222,138.0223,0,U,69142,999,414,-.24394E-1,-.2158546E-1,0
STARLINK-37636,2026-110V,2026-06-07T18:00:04.999104,15.74618432,.0001508,97.2841,355.1338,95.5629,203.6784,0,U,69143,999,414,-.20492E-1,-.2601562E-1,0
STARLINK-37638,2026-110W,2026-06-07T18:00:04.999104,15.75199508,.0001488,97.2842,355.1367,92.9330,212.9266,0,U,69144,999,414,-.20346E-1,-.2643028E-1,0
STARLINK-37657,2026-110X,2026-06-07T18:00:04.999104,15.60886628,.0001914,97.2850,355.0841,89.5713,95.8550,0,U,69145,999,419,-.36076E-1,-.2605923E-1,0
STARLINK-37639,2026-110Y,2026-06-07T18:00:04.999104,15.75602682,.0001452,97.2841,355.1414,95.9131,219.6879,0,U,69146,999,419,-.19551E-1,-.253322E-1,0
STARLINK-37661,2026-110Z,2026-06-07T18:00:04.999104,15.54468527,.0001471,97.2850,355.0525,76.2417,25.4865,0,U,69147,999,419,-.43654E-1,-.2491889E-1,0
STARLINK-37395,2026-111A,2026-06-07T14:20:54.057696,15.80963544,.0000631,53.1585,199.7199,115.8510,244.2577,0,U,69148,999,274,.10739E-2,.217588E-2,0
STARLINK-37346,2026-111B,2026-06-07T14:19:23.564928,15.80987715,.0000787,53.1585,199.7124,100.4567,259.6544,0,U,69149,999,274,.12302E-2,.250605E-2,0
STARLINK-37332,2026-111C,2026-06-07T17:19:30.222048,15.80971959,.000128,53.1586,199.0686,67.3726,292.7432,0,U,69150,999,276,.11229E-2,.227918E-2,0
STARLINK-37297,2026-111D,2026-06-07T14:19:05.121984,15.80971522,.0000673,53.1584,199.7109,80.4158,279.6941,0,U,69151,999,274,.11251E-2,.228378E-2,0
STARLINK-37317,2026-111E,2026-06-07T14:16:15.466080,15.80966237,.0000796,53.1585,199.6977,117.1136,242.9968,0,U,69152,999,274,.10652E-2,.215791E-2,0
STARLINK-37374,2026-111F,2026-06-07T18:00:04.999104,15.76121460,.0001279,53.1597,198.9168,73.0086,92.7983,0,U,69153,999,403,-.18527E-1,-.2518723E-1,0
STARLINK-37235,2026-111G,2026-06-07T18:00:04.999104,15.69497195,.0001326,53.1598,198.9967,58.4072,68.2904,0,U,69154,999,403,-.25112E-1,-.2618049E-1,0
STARLINK-37329,2026-111H,2026-06-07T17:18:58.742208,15.80972103,.0001176,53.1588,199.0661,40.2982,319.8128,0,U,69155,999,276,.12429E-2,.253094E-2,0
STARLINK-37345,2026-111J,2026-06-07T09:41:43.275840,15.80989237,.0002316,53.1585,200.6415,120.8458,239.2793,0,U,69156,999,271,.15797E-2,.324837E-2,0
STARLINK-37353,2026-111K,2026-06-07T14:14:30.650784,15.80962069,.000035,53.1587,199.6894,209.2775,150.8228,0,U,69157,999,274,.15786E-2,.324204E-2,0
STARLINK-37363,2026-111L,2026-06-07T16:00:01.998720,15.80884918,.0001228,53.1586,199.2986,77.4845,351.7235,0,U,69158,999,401,.17098E-4,.2678E-4,0
STARLINK-37343,2026-111M,2026-06-07T18:00:04.999104,15.75357521,.0001186,53.1597,198.9040,66.0177,105.8486,0,U,69159,999,403,-.19574E-1,-.2625458E-1,0
STARLINK-37328,2026-111N,2026-06-07T18:00:04.999104,15.80896684,.000133,53.1591,198.8785,68.0745,116.5820,0,U,69160,999,403,-.22033E-3,-.44013E-3,0
STARLINK-37311,2026-111P,2026-06-07T18:00:04.999104,15.78072966,.000037,53.1594,198.8895,103.5991,75.5885,0,U,69161,999,403,-.27992E-3,-.49026E-3,0
STARLINK-36286,2026-111Q,2026-06-07T18:00:04.999104,15.78083825,.000098,53.1593,198.8794,65.6427,118.4732,0,U,69162,999,403,-.44752E-3,-.77764E-3,0
STARLINK-37196,2026-111R,2026-06-07T18:00:04.999104,15.78080845,.0000917,53.1593,198.9106,101.3539,67.2261,0,U,69163,999,403,-.22459E-3,-.39527E-3,0
STARLINK-36288,2026-111S,2026-06-07T18:00:04.999104,15.78061747,.0001202,53.1595,198.9008,88.2811,84.9111,0,U,69164,999,403,-.13663E-3,-.2433E-3,0
STARLINK-37445,2026-111T,2026-06-07T18:00:04.999104,15.78076075,.0000766,53.1594,198.8644,79.8149,111.2236,0,U,69165,999,403,-.1938E-3,-.34213E-3,0
