[ {"name": "STARLINK-37531", "line1": "1 69136U 26110N   26158.75005786 -.02611635  00000+0 -26244-1 0  9999", "line2": "2 69136  97.2848 355.0989 0001827  87.0706 133.1984 15.68897368  4149"}, {"name": "STARLINK-37662", "line1": "1 69137U 26110P   26158.75005786 -.02721765  00000+0 -34681-1 0  9990", "line2": "2 69137  97.2851 355.0734 0001235  73.4035  87.3757 15.63200871  4149"}, {"name": "STARLINK-37658", "line1": "1 69138U 26110Q   26158.75005786 -.02180149  00000+0 -38576-1 0  9993", "line2": "2 69138  97.2848 355.0237 0001594  91.1108 304.2737 15.53679270  4141"}, {"name": "STARLINK-37659", "line1": "1 69139U 26110R   26158.75005786 -.02940688  00000+0 -55735-1 0  9992", "line2": "2 69139  97.2855 355.0095 0001625  60.6595 299.0728 15.52324615  4148"}, {"name": "STARLINK-37653", "line1": "1 69140U 26110S   26158.75005786 -.01159405  00000+0 -23026-1 0  9990", "line2": "2 69140  97.2856 355.0005 0001652 109.0808 239.1536 15.49995626  4141"}, {"name": "STARLINK-37654", "line1": "1 69141U 26110T   26158.75005786 -.02563878  00000+0 -34127-1 0  9999", "line2": "2 69141  97.2848 355.0809 0001935  80.6986  97.8843 15.61830444  4140"}, {"name": "STARLINK-37655", "line1": "1 69142U 26110U   26158.75005786 -.02158546  00000+0 -24394-1 0  9997", "line2": "2 69142  97.2849 355.0974 0001558  74.3222 138.0223 15.65922938  4143"}, {"name": "STARLINK-37636", "line1": "1 69143U 26110V   26158.75005786 -.02601562  00000+0 -20492-1 0  9994", "line2": "2 69143  97.2841 355.1338 0001508  95.5629 203.6784 15.74618432  4144"}, {"name": "STARLINK-37638", "line1": "1 69144U 26110W   26158.75005786 -.02643028  00000+0 -20346-1 0  9996", "line2": "2 69144  97.2842 355.1367 0001488  92.9330 212.9266 15.75199508  4142"}, {"name": "STARLINK-37657", "line1": "1 69145U 26110X   26158.75005786 -.02605923  00000+0 -36076-1 0  9996", "line2": "2 69145  97.2850 355.0841 0001914  89.5713  95.8550 15.60886628  4198"}, {"name": "STARLINK-37639", "line1": "1 69146U 26110Y   26158.75005786 -.02533220  00000+0 -19551-1 0  9996", "line2": "2 69146  97.2841 355.1414 0001452  95.9131 219.6879 15.75602682  4190"}, {"name": "STARLINK-37661", "line1": "1 69147U 26110Z   26158.75005786 -.02491889  00000+0 -43654-1 0  9992", "line2": "2 69147  97.2850 355.0525 0001471  76.2417  25.4865 15.54468527  4196"}, {"name": "STARLINK-37395", "line1": "1 69148U 26111A   26158.59784789  .00217588  00000+0  10739-2 0  9990", "line2": "2 69148  53.1585 199.7199 0000631 115.8510 244.2577 15.80963544  2742"}, {"name": "STARLINK-37346", "line1": "1 69149U 26111B   26158.59680052  .00250605  00000+0  12302-2 0  9994", "line2": "2 69149  53.1585 199.7124 0000787 100.4567 259.6544 15.80987715  2745"}, {"name": "STARLINK-37332", "line1": "1 69150U 26111C   26158.72187757  .00227918  00000+0  11229-2 0  9993", "line2": "2 69150  53.1586 199.0686 0001280  67.3726 292.7432 15.80971959  2760"}, {"name": "STARLINK-37297", "line1": "1 69151U 26111D   26158.59658706  .00228378  00000+0  11251-2 0  9992", "line2": "2 69151  53.1584 199.7109 0000673  80.4158 279.6941 15.80971522  2749"}, {"name": "STARLINK-37317", "line1": "1 69152U 26111E   26158.59462345  .00215791  00000+0  10652-2 0  9994", "line2": "2 69152  53.1585 199.6977 0000796 117.1136 242.9968 15.80966237  2742"}, {"name": "STARLINK-37374", "line1": "1 69153U 26111F   26158.75005786 -.02518723  00000+0 -18527-1 0  9998", "line2": "2 69153  53.1597 198.9168 0001279  73.0086  92.7983 15.76121460  4039"}, {"name": "STARLINK-37235", "line1": "1 69154U 26111G   26158.75005786 -.02618049  00000+0 -25112-1 0  9999", "line2": "2 69154  53.1598 198.9967 0001326  58.4072  68.2904 15.69497195  4037"}, {"name": "STARLINK-37329", "line1": "1 69155U 26111H   26158.72151322  .00253094  00000+0  12429-2 0  9994", "line2": "2 69155  53.1588 199.0661 0001176  40.2982 319.8128 15.80972103  2763"}, {"name": "STARLINK-37345", "line1": "1 69156U 26111J   26158.40397310  .00324837  00000+0  15797-2 0  9994", "line2": "2 69156  53.1585 200.6415 0002316 120.8458 239.2793 15.80989237  2711"}, {"name": "STARLINK-37353", "line1": "1 69157U 26111K   26158.59341031  .00324204  00000+0  15786-2 0  9990", "line2": "2 69157  53.1587 199.6894 0000350 209.2775 150.8228 15.80962069  2740"}, {"name": "STARLINK-37363", "line1": "1 69158U 26111L   26158.66668980  .00002678  00000+0  17098-4 0  9992", "line2": "2 69158  53.1586 199.2986 0001228  77.4845 351.7235 15.80884918  4014"}, {"name": "STARLINK-37343", "line1": "1 69159U 26111M   26158.75005786 -.02625458  00000+0 -19574-1 0  9991", "line2": "2 69159  53.1597 198.9040 0001186  66.0177 105.8486 15.75357521  4036"}, {"name": "STARLINK-37328", "line1": "1 69160U 26111N   26158.75005786 -.00044013  00000+0 -22033-3 0  9999", "line2": "2 69160  53.1591 198.8785 0001330  68.0745 116.5820 15.80896684  4036"}, {"name": "STARLINK-37311", "line1": "1 69161U 26111P   26158.75005786 -.00049026  00000+0 -27992-3 0  9998", "line2": "2 69161  53.1594 198.8895 0000370 103.5991  75.5885 15.78072966  4034"}, {"name": "STARLINK-36286", "line1": "1 69162U 26111Q   26158.75005786 -.00077764  00000+0 -44752-3 0  9992", "line2": "2 69162  53.1593 198.8794 0000980  65.6427 118.4732 15.78083825  4035"}, {"name": "STARLINK-37196", "line1": "1 69163U 26111R   26158.75005786 -.00039527  00000+0 -22459-3 0  9998", "line2": "2 69163  53.1593 198.9106 0000917 101.3539  67.2261 15.78080845  4033"}, {"name": "STARLINK-36288", "line1": "1 69164U 26111S   26158.75005786 -.00024330  00000+0 -13663-3 0  9992", "line2": "2 69164  53.1595 198.9008 0001202  88.2811  84.9111 15.78061747  4031"}, {"name": "STARLINK-37445", "line1": "1 69165U 26111T   26158.75005786 -.00034213  00000+0 -19380-3 0  9996", "line2": "2 69165  53.1594 198.8644 0000766  79.8149 111.2236 15.78076075  4032"}]